{
    "links": {
        "self": "http://www.neowsapp.com/rest/v1/neo/3752015?api_key=iIulBulltgU6a56xZRHN4H3l9WmuAYTsLGpBGhQ2"
    },
    "id": "3752015",
    "neo_reference_id": "3752015",
    "name": "(2016 GZ221)",
    "designation": "2016 GZ221",
    "nasa_jpl_url": "http://ssd.jpl.nasa.gov/sbdb.cgi?sstr=3752015",
    "absolute_magnitude_h": 21.6,
    "estimated_diameter": {
        "kilometers": {
            "estimated_diameter_min": 0.1272198785,
            "estimated_diameter_max": 0.2844722965
        },
        "meters": {
            "estimated_diameter_min": 127.2198785394,
            "estimated_diameter_max": 284.4722965033
        },
        "miles": {
            "estimated_diameter_min": 0.0790507431,
            "estimated_diameter_max": 0.1767628354
        },
        "feet": {
            "estimated_diameter_min": 417.3880663071,
            "estimated_diameter_max": 933.3080892598
        }
    },
    "is_potentially_hazardous_asteroid": false,
    "close_approach_data": [
        {
            "close_approach_date": "1991-04-11",
            "close_approach_date_full": "1991-Apr-11 19:12",
            "epoch_date_close_approach": 671397120000,
            "relative_velocity": {
                "kilometers_per_second": "18.6903981092",
                "kilometers_per_hour": "67285.433193152",
                "miles_per_hour": "41808.5515304894"
            },
            "miss_distance": {
                "astronomical": "0.447626215",
                "lunar": "174.126597635",
                "kilometers": "66963928.32016205",
                "miles": "41609455.60205429"
            },
            "orbiting_body": "Earth"
        },
        {
            "close_approach_date": "2010-08-05",
            "close_approach_date_full": "2010-Aug-05 08:20",
            "epoch_date_close_approach": 1280996400000,
            "relative_velocity": {
                "kilometers_per_second": "7.3949707691",
                "kilometers_per_hour": "26621.8947688541",
                "miles_per_hour": "16541.8101134582"
            },
            "miss_distance": {
                "astronomical": "1.8408418032",
                "lunar": "716.0874614448",
                "kilometers": "275386012.765679184",
                "miles": "171116933.5349493792"
            },
            "orbiting_body": "Juptr"
        },
        {
            "close_approach_date": "2016-04-09",
            "close_approach_date_full": "2016-Apr-09 14:16",
            "epoch_date_close_approach": 1460211360000,
            "relative_velocity": {
                "kilometers_per_second": "12.8924200977",
                "kilometers_per_hour": "46412.7123515573",
                "miles_per_hour": "28839.054516444"
            },
            "miss_distance": {
                "astronomical": "0.4866273237",
                "lunar": "189.2980289193",
                "kilometers": "72798411.109320519",
                "miles": "45234835.0961564022"
            },
            "orbiting_body": "Earth"
        },
        {
            "close_approach_date": "2045-04-08",
            "close_approach_date_full": "2045-Apr-08 10:27",
            "epoch_date_close_approach": 2375260020000,
            "relative_velocity": {
                "kilometers_per_second": "17.0882310167",
                "kilometers_per_hour": "61517.6316600311",
                "miles_per_hour": "38224.663961201"
            },
            "miss_distance": {
                "astronomical": "0.4063171606",
                "lunar": "158.0573754734",
                "kilometers": "60784181.770207922",
                "miles": "37769539.1552044436"
            },
            "orbiting_body": "Earth"
        }
    ],
    "orbital_data": {
        "orbit_id": "5",
        "orbit_determination_date": "2017-04-06 08:26:29",
        "first_observation_date": "2016-04-03",
        "last_observation_date": "2016-05-01",
        "data_arc_in_days": 28,
        "observations_used": 18,
        "orbit_uncertainty": "6",
        "minimum_orbit_intersection": ".342519",
        "jupiter_tisserand_invariant": "3.071",
        "epoch_osculation": "2459000.5",
        "eccentricity": ".5539190992494617",
        "semi_major_axis": "2.5779930691965",
        "inclination": "26.13098971999839",
        "ascending_node_longitude": "40.27434150191319",
        "orbital_period": "1511.892960854204",
        "perihelion_distance": "1.149993470435819",
        "perihelion_argument": "112.0930917319184",
        "aphelion_distance": "4.00599266795718",
        "perihelion_time": "2458930.133274388565",
        "mean_anomaly": "16.75516843851462",
        "mean_motion": ".2381120947852047",
        "equinox": "J2000",
        "orbit_class": {
            "orbit_class_type": "AMO",
            "orbit_class_description": "Near-Earth asteroid orbits similar to that of 1221 Amor",
            "orbit_class_range": "1.017 AU < q (perihelion) < 1.3 AU"
        }
    },
    "is_sentry_object": false
}